{"type": "FeatureCollection", "features": [ {"type": "Feature", "properties": {"norad_id": 66563, "name": "STARLINK-35437", "group": "last-30-days", "lat": -7.765989213364595, "lon": 134.73212088715587, "alt_km": 412.23788390965274, "timestamp": "2025-12-08T23:34:02.739994+00:00", "meta": {"OBJECT_NAME": "STARLINK-35437", "OBJECT_ID": "2025-268G", "EPOCH": "2025-12-08T14:00:01.999872", "MEAN_MOTION": 15.53225763, "ECCENTRICITY": 0.00013193, "INCLINATION": 43.0004, "RA_OF_ASC_NODE": 145.4863, "ARG_OF_PERICENTER": 265.5737, "MEAN_ANOMALY": 12.5716, "EPHEMERIS_TYPE": 0, "CLASSIFICATION_TYPE": "U", "NORAD_CAT_ID": 66563, "ELEMENT_SET_NO": 999, "REV_AT_EPOCH": 400, "BSTAR": -0.03071089, "MEAN_MOTION_DOT": -0.01763858, "MEAN_MOTION_DDOT": 0}, "tle": {"line1": "1 66563U 25268G   25342.58335648 -.01763858  00000+0 -30711-1 0  9999", "line2": "2 66563  43.0004 145.4863 0001319 265.5737  12.5716 15.53225763  4004"}}, "geometry": {"type": "Point", "coordinates": [134.73212088715587, -7.765989213364595]}}, {"type": "Feature", "properties": {"norad_id": 66564, "name": "STARLINK-35358", "group": "last-30-days", "lat": -6.469538479828074, "lon": 136.1538004682752, "alt_km": 412.09564335007417, "timestamp": "2025-12-08T23:34:02.740004+00:00", "meta": {"OBJECT_NAME": "STARLINK-35358", "OBJECT_ID": "2025-268H", "EPOCH": "2025-12-08T14:00:01.999872", "MEAN_MOTION": 15.53227299, "ECCENTRICITY": 0.00013531, "INCLINATION": 43.0003, "RA_OF_ASC_NODE": 145.4821, "ARG_OF_PERICENTER": 266.839, "MEAN_ANOMALY": 13.2248, "EPHEMERIS_TYPE": 0, "CLASSIFICATION_TYPE": "U", "NORAD_CAT_ID": 66564, "ELEMENT_SET_NO": 999, "REV_AT_EPOCH": 395, "BSTAR": -0.030760482, "MEAN_MOTION_DOT": -0.017665, "MEAN_MOTION_DDOT": 0}, "tle": {"line1": "1 66564U 25268H   25342.58335648 -.01766500  00000+0 -30760-1 0  9991", "line2": "2 66564  43.0003 145.4821 0001353 266.8390  13.2248 15.53227299  3952"}}, "geometry": {"type": "Point", "coordinates": [136.1538004682752, -6.469538479828074]}}, {"type": "Feature", "properties": {"norad_id": 66565, "name": "STARLINK-35893", "group": "last-30-days", "lat": -5.169550940514517, "lon": 137.56667262472084, "alt_km": 412.0369529410418, "timestamp": "2025-12-08T23:34:02.740018+00:00", "meta": {"OBJECT_NAME": "STARLINK-35893", "OBJECT_ID": "2025-268J", "EPOCH": "2025-12-08T14:00:01.999872", "MEAN_MOTION": 15.53225459, "ECCENTRICITY": 0.00015115, "INCLINATION": 43.0004, "RA_OF_ASC_NODE": 145.4768, "ARG_OF_PERICENTER": 263.4635, "MEAN_ANOMALY": 18.5158, "EPHEMERIS_TYPE": 0, "CLASSIFICATION_TYPE": "U", "NORAD_CAT_ID": 66565, "ELEMENT_SET_NO": 999, "REV_AT_EPOCH": 400, "BSTAR": -0.030657473, "MEAN_MOTION_DOT": -0.01761212, "MEAN_MOTION_DDOT": 0}, "tle": {"line1": "1 66565U 25268J   25342.58335648 -.01761212  00000+0 -30657-1 0  9992", "line2": "2 66565  43.0004 145.4768 0001511 263.4635  18.5158 15.53225459  4006"}}, "geometry": {"type": "Point", "coordinates": [137.56667262472084, -5.169550940514517]}}, {"type": "Feature", "properties": {"norad_id": 66566, "name": "STARLINK-35871", "group": "last-30-days", "lat": -3.867213632934124, "lon": 138.97320512344092, "alt_km": 411.8312121011668, "timestamp": "2025-12-08T23:34:02.740028+00:00", "meta": {"OBJECT_NAME": "STARLINK-35871", "OBJECT_ID": "2025-268K", "EPOCH": "2025-12-08T14:00:01.999872", "MEAN_MOTION": 15.53230933, "ECCENTRICITY": 0.00014659, "INCLINATION": 43.0002, "RA_OF_ASC_NODE": 145.4719, "ARG_OF_PERICENTER": 267.2477, "MEAN_ANOMALY": 16.6456, "EPHEMERIS_TYPE": 0, "CLASSIFICATION_TYPE": "U", "NORAD_CAT_ID": 66566, "ELEMENT_SET_NO": 999, "REV_AT_EPOCH": 400, "BSTAR": -0.030760639, "MEAN_MOTION_DOT": -0.01766779, "MEAN_MOTION_DDOT": 0}, "tle": {"line1": "1 66566U 25268K   25342.58335648 -.01766779  00000+0 -30761-1 0  9992", "line2": "2 66566  43.0002 145.4719 0001465 267.2477  16.6456 15.53230933  4008"}}, "geometry": {"type": "Point", "coordinates": [138.97320512344092, -3.867213632934124]}}, {"type": "Feature", "properties": {"norad_id": 66567, "name": "STARLINK-35825", "group": "last-30-days", "lat": -2.5644710021307096, "lon": 140.3736106836612, "alt_km": 411.7991356860084, "timestamp": "2025-12-08T23:34:02.740040+00:00", "meta": {"OBJECT_NAME": "STARLINK-35825", "OBJECT_ID": "2025-268L", "EPOCH": "2025-12-08T14:00:01.999872", "MEAN_MOTION": 15.53227709, "ECCENTRICITY": 0.00013857, "INCLINATION": 43.0003, "RA_OF_ASC_NODE": 145.4672, "ARG_OF_PERICENTER": 263.8386, "MEAN_ANOMALY": 21.9754, "EPHEMERIS_TYPE": 0, "CLASSIFICATION_TYPE": "U", "NORAD_CAT_ID": 66567, "ELEMENT_SET_NO": 999, "REV_AT_EPOCH": 400, "BSTAR": -0.030786151, "MEAN_MOTION_DOT": -0.01767853, "MEAN_MOTION_DDOT": 0}, "tle": {"line1": "1 66567U 25268L   25342.58335648 -.01767853  00000+0 -30786-1 0  9994", "line2": "2 66567  43.0003 145.4672 0001385 263.8386  21.9754 15.53227709  4007"}}, "geometry": {"type": "Point", "coordinates": [140.3736106836612, -2.5644710021307096]}}, {"type": "Feature", "properties": {"norad_id": 66568, "name": "STARLINK-35803", "group": "last-30-days", "lat": -1.2565435297120784, "lon": 141.77434546162326, "alt_km": 411.6796467800459, "timestamp": "2025-12-08T23:34:02.740050+00:00", "meta": {"OBJECT_NAME": "STARLINK-35803", "OBJECT_ID": "2025-268M", "EPOCH": "2025-12-08T14:00:01.999872", "MEAN_MOTION": 15.53229445, "ECCENTRICITY": 0.00013967, "INCLINATION": 43.0005, "RA_OF_ASC_NODE": 145.4618, "ARG_OF_PERICENTER": 262.7644, "MEAN_ANOMALY": 24.964, "EPHEMERIS_TYPE": 0, "CLASSIFICATION_TYPE": "U", "NORAD_CAT_ID": 66568, "ELEMENT_SET_NO": 999, "REV_AT_EPOCH": 400, "BSTAR": -0.030707267, "MEAN_MOTION_DOT": -0.01763926, "MEAN_MOTION_DDOT": 0}, "tle": {"line1": "1 66568U 25268M   25342.58335648 -.01763926  00000+0 -30707-1 0  9995", "line2": "2 66568  43.0005 145.4618 0001396 262.7644  24.9640 15.53229445  4003"}}, "geometry": {"type": "Point", "coordinates": [141.77434546162326, -1.2565435297120784]}}, {"type": "Feature", "properties": {"norad_id": 66569, "name": "STARLINK-35835", "group": "last-30-days", "lat": 0.05029423614119697, "lon": 143.1724792383105, "alt_km": 411.5423456492099, "timestamp": "2025-12-08T23:34:02.740060+00:00", "meta": {"OBJECT_NAME": "STARLINK-35835", "OBJECT_ID": "2025-268N", "EPOCH": "2025-12-08T14:00:01.999872", "MEAN_MOTION": 15.53230639, "ECCENTRICITY": 0.00013647, "INCLINATION": 43.0005, "RA_OF_ASC_NODE": 145.4572, "ARG_OF_PERICENTER": 263.1411, "MEAN_ANOMALY": 26.505, "EPHEMERIS_TYPE": 0, "CLASSIFICATION_TYPE": "U", "NORAD_CAT_ID": 66569, "ELEMENT_SET_NO": 999, "REV_AT_EPOCH": 400, "BSTAR": -0.030764764, "MEAN_MOTION_DOT": -0.01766918, "MEAN_MOTION_DDOT": 0}, "tle": {"line1": "1 66569U 25268N   25342.58335648 -.01766918  00000+0 -30765-1 0  9994", "line2": "2 66569  43.0005 145.4572 0001364 263.1411  26.5050 15.53230639  4005"}}, "geometry": {"type": "Point", "coordinates": [143.1724792383105, 0.05029423614119697]}}, {"type": "Feature", "properties": {"norad_id": 66570, "name": "STARLINK-35834", "group": "last-30-days", "lat": 1.3812105431360244, "lon": 144.59575967064447, "alt_km": 411.328239607883, "timestamp": "2025-12-08T23:34:02.740070+00:00", "meta": {"OBJECT_NAME": "STARLINK-35834", "OBJECT_ID": "2025-268P", "EPOCH": "2025-12-08T14:00:01.999872", "MEAN_MOTION": 15.53230728, "ECCENTRICITY": 0.00012086, "INCLINATION": 43.0003, "RA_OF_ASC_NODE": 145.4519, "ARG_OF_PERICENTER": 258.0609, "MEAN_ANOMALY": 33.4979, "EPHEMERIS_TYPE": 0, "CLASSIFICATION_TYPE": "U", "NORAD_CAT_ID": 66570, "ELEMENT_SET_NO": 999, "REV_AT_EPOCH": 400, "BSTAR": -0.029598758, "MEAN_MOTION_DOT": -0.01706974, "MEAN_MOTION_DDOT": 0}, "tle": {"line1": "1 66570U 25268P   25342.58335648 -.01706974  00000+0 -29599-1 0  9995", "line2": "2 66570  43.0003 145.4519 0001208 258.0609  33.4979 15.53230728  4001"}}, "geometry": {"type": "Point", "coordinates": [144.59575967064447, 1.3812105431360244]}}, {"type": "Feature", "properties": {"norad_id": 66571, "name": "STARLINK-35836", "group": "last-30-days", "lat": 2.690270657298785, "lon": 145.99892531097447, "alt_km": 411.19533905207663, "timestamp": "2025-12-08T23:34:02.740080+00:00", "meta": {"OBJECT_NAME": "STARLINK-35836", "OBJECT_ID": "2025-268Q", "EPOCH": "2025-12-08T14:00:01.999872", "MEAN_MOTION": 15.53236422, "ECCENTRICITY": 0.000133, "INCLINATION": 43.0003, "RA_OF_ASC_NODE": 145.4474, "ARG_OF_PERICENTER": 257.9757, "MEAN_ANOMALY": 35.4959, "EPHEMERIS_TYPE": 0, "CLASSIFICATION_TYPE": "U", "NORAD_CAT_ID": 66571, "ELEMENT_SET_NO": 999, "REV_AT_EPOCH": 400, "BSTAR": -0.029620933, "MEAN_MOTION_DOT": -0.01708497, "MEAN_MOTION_DDOT": 0}, "tle": {"line1": "1 66571U 25268Q   25342.58335648 -.01708497  00000+0 -29621-1 0  9994", "line2": "2 66571  43.0003 145.4474 0001330 257.9757  35.4959 15.53236422  4007"}}, "geometry": {"type": "Point", "coordinates": [145.99892531097447, 2.690270657298785]}}, {"type": "Feature", "properties": {"norad_id": 66572, "name": "STARLINK-35870", "group": "last-30-days", "lat": 3.9946888920322707, "lon": 147.4026786723961, "alt_km": 411.0391540361343, "timestamp": "2025-12-08T23:34:02.740090+00:00", "meta": {"OBJECT_NAME": "STARLINK-35870", "OBJECT_ID": "2025-268R", "EPOCH": "2025-12-08T14:00:01.999872", "MEAN_MOTION": 15.53234364, "ECCENTRICITY": 0.0001202, "INCLINATION": 43.0003, "RA_OF_ASC_NODE": 145.4437, "ARG_OF_PERICENTER": 257.743, "MEAN_ANOMALY": 37.6505, "EPHEMERIS_TYPE": 0, "CLASSIFICATION_TYPE": "U", "NORAD_CAT_ID": 66572, "ELEMENT_SET_NO": 999, "REV_AT_EPOCH": 400, "BSTAR": -0.029640095, "MEAN_MOTION_DOT": -0.01709305, "MEAN_MOTION_DDOT": 0}, "tle": {"line1": "1 66572U 25268R   25342.58335648 -.01709305  00000+0 -29640-1 0  9995", "line2": "2 66572  43.0003 145.4437 0001202 257.7430  37.6505 15.53234364  4005"}}, "geometry": {"type": "Point", "coordinates": [147.4026786723961, 3.9946888920322707]}}]}